ELYSIUM STAR 2 & LFF    
1 43760U 18099C   24277.43674628  .00186790  00000+0  39071-2 0  9991
2 43760  97.5008 346.7306 0006033 234.9903 125.0779 15.44742876319824
